[
    {
        "Altitude(m)": 611967.2110084103,
        "Argument of Periapsis(deg)": 0.0,
        "Eccentricity": 0.0,
        "Inclination(deg)": 60.0,
        "Latitude(deg)": 59.140258807695915,
        "Longitude(deg)": 111.0921128646922,
        "Mean Anomaly(deg)": 98.18179999999998,
        "RAAN(deg)": 105.0,
        "Satellite Name": "Test1 468",
        "Satellite Number": 468,
        "Semi-Major Axis(m)": 6980739.136638005,
        "Time(s)": 0
    },
    {
        "Altitude(m)": 611934.4107424013,
        "Argument of Periapsis(deg)": 0.00010418945913296404,
        "Eccentricity": 0.0,
        "Inclination(deg)": 60.0,
        "Latitude(deg)": 58.98662032793954,
        "Longitude(deg)": 112.21536141156417,
        "Mean Anomaly(deg)": 98.80190614546181,
        "RAAN(deg)": 104.99957995086028,
        "Satellite Name": "Test1 468",
        "Satellite Number": 468,
        "Semi-Major Axis(m)": 6980739.136638005,
        "Time(s)": 10
    }
]